OBJECT C                
1 57582U 23117C   24362.18063057  .00013865  00000+0  61655-3 0  9996
2 57582  97.4672  72.1048 0009191 349.5870  10.5173 15.21580898 76470
